IRIDIUM 57              
1 25273U 98019B   24154.50539223  .00000542  00000+0  18288-3 0  9991
2 25273  86.3937 304.2735 0002062  90.1961 269.9471 14.35230927370315
IRIDIUM 63              
1 25286U 98021B   24155.23161123  .00000566  00000+0  18885-3 0  9998
2 25286  86.4002 240.8580 0002341  90.6400 269.5065 14.35784581369727
IRIDIUM 69              
1 25319U 98026A   24155.54961825  .00000811  00000+0  25120-3 0  9994
2 25319  86.3982 255.1543 0002988 144.9773 215.1623 14.40018430368793
IRIDIUM 71              
1 25320U 98026B   24154.37156874  .00000660  00000+0  20196-3 0  9996
2 25320  86.3985 250.4141 0000518 171.8751 188.2457 14.40329940368901
IRIDIUM 73              
1 25344U 98032C   24154.60790890  .00000689  00000+0  17083-3 0  9999
2 25344  86.4455 207.7829 0002253 107.7364 252.4087 14.50555368375518
IRIDIUM 82              
1 25467U 98051A   24155.42434287  .00012331  00000+0  62945-3 0  9996
2 25467  86.3739 292.3012 0126030 271.4635  87.2168 15.09822307366410
IRIDIUM 2               
1 25527U 98066A   24155.48249990  .00288166  00000+0  11346-2 0  9999
2 25527  85.4961 312.0896 0003543 267.4377  92.6495 15.86160515405266
